{
  "type": "FeatureCollection",
  "features": [
    {
      "type": "Feature",
      "properties": {
        "norad_id": 41773,
        "name": "SKYSAT-C2",
        "group": "resource",
        "lat": -18.561998222984883,
        "lon": -157.79282598331397,
        "alt_km": 460.0535682931468,
        "timestamp": "2025-12-26T15:29:39.095709+00:00",
        "meta_object_name": "SKYSAT-C2",
        "meta_object_id": "2016-058D",
        "meta_epoch": "2025-12-26T00:34:32.744640",
        "meta_mean_motion": 15.37567448,
        "meta_eccentricity": 0.00026524,
        "meta_inclination": 97.0353,
        "meta_ra_of_asc_node": 23.9884,
        "meta_arg_of_pericenter": 353.6257,
        "meta_mean_anomaly": 6.4955,
        "meta_ephemeris_type": 0,
        "meta_classification_type": "U",
        "meta_norad_cat_id": 41773,
        "meta_element_set_no": 999,
        "meta_rev_at_epoch": 51840,
        "meta_bstar": 0.00032600272,
        "meta_mean_motion_dot": 0.00011946,
        "meta_mean_motion_ddot": 0,
        "tle_line1": "1 41773U 16058D   25360.02399010  .00011946  00000+0  32600-3 0  9996",
        "tle_line2": "2 41773  97.0353  23.9884 0002652 353.6257   6.4955 15.37567448518408"
      },
      "geometry": {
        "type": "Point",
        "coordinates": [
          -157.79282598331397,
          -18.561998222984883
        ]
      }
    },
    {
      "type": "Feature",
      "properties": {
        "norad_id": 41774,
        "name": "SKYSAT-C3",
        "group": "resource",
        "lat": 27.4112379133289,
        "lon": 30.130609739582777,
        "alt_km": 430.3320099897792,
        "timestamp": "2025-12-26T15:29:39.095720+00:00",
        "meta_object_name": "SKYSAT-C3",
        "meta_object_id": "2016-058E",
        "meta_epoch": "2025-12-26T01:23:02.725152",
        "meta_mean_motion": 15.44872099,
        "meta_eccentricity": 0.00021358,
        "meta_inclination": 96.9285,
        "meta_ra_of_asc_node": 33.1854,
        "meta_arg_of_pericenter": 105.3287,
        "meta_mean_anomaly": 254.82,
        "meta_ephemeris_type": 0,
        "meta_classification_type": "U",
        "meta_norad_cat_id": 41774,
        "meta_element_set_no": 999,
        "meta_rev_at_epoch": 51931,
        "meta_bstar": 0.00040459757,
        "meta_mean_motion_dot": 0.00018932,
        "meta_mean_motion_ddot": 0,
        "tle_line1": "1 41774U 16058E   25360.05767043  .00018932  00000+0  40460-3 0  9990",
        "tle_line2": "2 41774  96.9285  33.1854 0002135 105.3287 254.8200 15.44872099519314"
      },
      "geometry": {
        "type": "Point",
        "coordinates": [
          30.130609739582777,
          27.4112379133289
        ]
      }
    },
    {
      "type": "Feature",
      "properties": {
        "norad_id": 41785,
        "name": "ALSAT 1B",
        "group": "resource",
        "lat": -39.98479021332688,
        "lon": -174.7502335841836,
        "alt_km": 667.8323654283731,
        "timestamp": "2025-12-26T15:29:39.095729+00:00",
        "meta_object_name": "ALSAT 1B",
        "meta_object_id": "2016-059C",
        "meta_epoch": "2025-12-26T06:20:25.464768",
        "meta_mean_motion": 14.72088889,
        "meta_eccentricity": 0.00107332,
        "meta_inclination": 97.7811,
        "meta_ra_of_asc_node": 11.4697,
        "meta_arg_of_pericenter": 65.5954,
        "meta_mean_anomaly": 294.6373,
        "meta_ephemeris_type": 0,
        "meta_classification_type": "U",
        "meta_norad_cat_id": 41785,
        "meta_element_set_no": 999,
        "meta_rev_at_epoch": 49513,
        "meta_bstar": 7.8238371e-05,
        "meta_mean_motion_dot": 4.45e-06,
        "meta_mean_motion_ddot": 0,
        "tle_line1": "1 41785U 16059C   25360.26418362  .00000445  00000+0  78238-4 0  9998",
        "tle_line2": "2 41785  97.7811  11.4697 0010733  65.5954 294.6373 14.72088889495137"
      },
      "geometry": {
        "type": "Point",
        "coordinates": [
          -174.7502335841836,
          -39.98479021332688
        ]
      }
    },
    {
      "type": "Feature",
      "properties": {
        "norad_id": 41787,
        "name": "PATHFINDER 1",
        "group": "resource",
        "lat": 60.59427418096943,
        "lon": -11.328118413375519,
        "alt_km": 644.4925933147379,
        "timestamp": "2025-12-26T15:29:39.095740+00:00",
        "meta_object_name": "PATHFINDER 1",
        "meta_object_id": "2016-059E",
        "meta_epoch": "2025-12-26T07:01:59.666016",
        "meta_mean_motion": 14.67344768,
        "meta_eccentricity": 0.0029542,
        "meta_inclination": 97.8139,
        "meta_ra_of_asc_node": 2.4377,
        "meta_arg_of_pericenter": 39.7805,
        "meta_mean_anomaly": 320.5559,
        "meta_ephemeris_type": 0,
        "meta_classification_type": "U",
        "meta_norad_cat_id": 41787,
        "meta_element_set_no": 999,
        "meta_rev_at_epoch": 49435,
        "meta_bstar": 0.00016619917,
        "meta_mean_motion_dot": 8.98e-06,
        "meta_mean_motion_ddot": 0,
        "tle_line1": "1 41787U 16059E   25360.29305169  .00000898  00000+0  16620-3 0  9991",
        "tle_line2": "2 41787  97.8139   2.4377 0029542  39.7805 320.5559 14.67344768494357"
      },
      "geometry": {
        "type": "Point",
        "coordinates": [
          -11.328118413375519,
          60.59427418096943
        ]
      }
    },
    {
      "type": "Feature",
      "properties": {
        "norad_id": 41790,
        "name": "SCATSAT 1",
        "group": "resource",
        "lat": -80.17499781140222,
        "lon": 113.27562735267811,
        "alt_km": 678.6770020467429,
        "timestamp": "2025-12-26T15:29:39.095749+00:00",
        "meta_object_name": "SCATSAT 1",
        "meta_object_id": "2016-059H",
        "meta_epoch": "2025-12-26T02:53:17.989440",
        "meta_mean_motion": 14.78978237,
        "meta_eccentricity": 0.00564317,
        "meta_inclination": 98.1446,
        "meta_ra_of_asc_node": 56.9567,
        "meta_arg_of_pericenter": 85.8593,
        "meta_mean_anomaly": 274.9065,
        "meta_ephemeris_type": 0,
        "meta_classification_type": "U",
        "meta_norad_cat_id": 41790,
        "meta_element_set_no": 999,
        "meta_rev_at_epoch": 7600,
        "meta_bstar": 0.00019672172,
        "meta_mean_motion_dot": 1.435e-05,
        "meta_mean_motion_ddot": 0,
        "tle_line1": "1 41790U 16059H   25360.12034710  .00001435  00000+0  19672-3 0  9996",
        "tle_line2": "2 41790  98.1446  56.9567 0056431  85.8593 274.9065 14.78978237 76002"
      },
      "geometry": {
        "type": "Point",
        "coordinates": [
          113.27562735267811,
          -80.17499781140222
        ]
      }
    },
    {
      "type": "Feature",
      "properties": {
        "norad_id": 41875,
        "name": "GOKTURK 1A",
        "group": "resource",
        "lat": -81.656595787136,
        "lon": -29.69687574711581,
        "alt_km": 692.394366885449,
        "timestamp": "2025-12-26T15:29:39.095759+00:00",
        "meta_object_name": "GOKTURK 1A",
        "meta_object_id": "2016-073A",
        "meta_epoch": "2025-12-26T06:02:48.988896",
        "meta_mean_motion": 14.62795551,
        "meta_eccentricity": 0.00012791,
        "meta_inclination": 98.1423,
        "meta_ra_of_asc_node": 252.4372,
        "meta_arg_of_pericenter": 81.6346,
        "meta_mean_anomaly": 278.5001,
        "meta_ephemeris_type": 0,
        "meta_classification_type": "U",
        "meta_norad_cat_id": 41875,
        "meta_element_set_no": 999,
        "meta_rev_at_epoch": 48354,
        "meta_bstar": 0.00014392027,
        "meta_mean_motion_dot": 6.87e-06,
        "meta_mean_motion_ddot": 0,
        "tle_line1": "1 41875U 16073A   25360.25195589  .00000687  00000+0  14392-3 0  9994",
        "tle_line2": "2 41875  98.1423 252.4372 0001279  81.6346 278.5001 14.62795551483548"
      },
      "geometry": {
        "type": "Point",
        "coordinates": [
          -29.69687574711581,
          -81.656595787136
        ]
      }
    },
    {
      "type": "Feature",
      "properties": {
        "norad_id": 41877,
        "name": "RESOURCESAT-2A",
        "group": "resource",
        "lat": 61.14514240529257,
        "lon": 54.142724662250416,
        "alt_km": 814.770775314757,
        "timestamp": "2025-12-26T15:29:39.095769+00:00",
        "meta_object_name": "RESOURCESAT-2A",
        "meta_object_id": "2016-074A",
        "meta_epoch": "2025-12-26T06:45:20.501856",
        "meta_mean_motion": 14.21604824,
        "meta_eccentricity": 0.00016614,
        "meta_inclination": 98.7735,
        "meta_ra_of_asc_node": 70.0576,
        "meta_arg_of_pericenter": 196.8691,
        "meta_mean_anomaly": 163.2432,
        "meta_ephemeris_type": 0,
        "meta_classification_type": "U",
        "meta_norad_cat_id": 41877,
        "meta_element_set_no": 999,
        "meta_rev_at_epoch": 46973,
        "meta_bstar": 2.460068e-06,
        "meta_mean_motion_dot": -3.9e-07,
        "meta_mean_motion_ddot": 0,
        "tle_line1": "1 41877U 16074A   25360.28148729 -.00000039  00000+0  24601-5 0  9992",
        "tle_line2": "2 41877  98.7735  70.0576 0001661 196.8691 163.2432 14.21604824469739"
      },
      "geometry": {
        "type": "Point",
        "coordinates": [
          54.142724662250416,
          61.14514240529257
        ]
      }
    }
  ]
}